STARLINK-32620          
1 61928U 24207S   26068.96170509  .00022578  00000+0  82730-3 0  9996
2 61928  42.9976 280.2017 0001239 177.7922 182.2936 15.27587154 74765
TROLL                   
1 62658U 25009BB  26068.22522958  .00013174  00000+0  48220-3 0  9994
2 62658  97.3932 150.7169 0001816  59.1850 300.9568 15.28164315118170
